MALLIGYONG-1            
1 58400U 23179A   23364.94584573  .00005764  00000+0  25676-3 0  9992
2 58400  97.4252 249.2038 0016882 135.2076 225.0526 15.21704125  5987
